{
  "type": "FeatureCollection",
  "features": [
    {
      "type": "Feature",
      "properties": {
        "norad_id": 33860,
        "name": "IRIDIUM 33 DEB",
        "group": "iridium-33-debris",
        "lat": 27.93300850535418,
        "lon": -159.5771657224785,
        "alt_km": 672.1761528616516,
        "timestamp": "2025-12-23T18:59:32.349562+00:00",
        "meta_object_name": "IRIDIUM 33 DEB",
        "meta_object_id": "1997-051AD",
        "meta_epoch": "2025-12-23T00:24:44.686368",
        "meta_mean_motion": 14.67484172,
        "meta_eccentricity": 0.00062045,
        "meta_inclination": 86.3821,
        "meta_ra_of_asc_node": 22.688,
        "meta_arg_of_pericenter": 317.9122,
        "meta_mean_anomaly": 66.8046,
        "meta_ephemeris_type": 0,
        "meta_classification_type": "U",
        "meta_norad_cat_id": 33860,
        "meta_element_set_no": 999,
        "meta_rev_at_epoch": 88873,
        "meta_bstar": 0.0012079683,
        "meta_mean_motion_dot": 6.866e-05,
        "meta_mean_motion_ddot": 0,
        "tle_line1": "1 33860U 97051AD  25357.01718387  .00006866  00000+0  12080-2 0  9997",
        "tle_line2": "2 33860  86.3821  22.6880 0006204 317.9122  66.8046 14.67484172888731"
      },
      "geometry": {
        "type": "Point",
        "coordinates": [
          -159.5771657224785,
          27.93300850535418
        ]
      }
    },
    {
      "type": "Feature",
      "properties": {
        "norad_id": 33862,
        "name": "IRIDIUM 33 DEB",
        "group": "iridium-33-debris",
        "lat": -86.20182893742702,
        "lon": -38.4834550569366,
        "alt_km": 688.3721921330362,
        "timestamp": "2025-12-23T18:59:32.349571+00:00",
        "meta_object_name": "IRIDIUM 33 DEB",
        "meta_object_id": "1997-051AF",
        "meta_epoch": "2025-12-23T01:32:54.489984",
        "meta_mean_motion": 14.6963106,
        "meta_eccentricity": 0.0052374,
        "meta_inclination": 86.4076,
        "meta_ra_of_asc_node": 32.9766,
        "meta_arg_of_pericenter": 34.4882,
        "meta_mean_anomaly": 354.3477,
        "meta_ephemeris_type": 0,
        "meta_classification_type": "U",
        "meta_norad_cat_id": 33862,
        "meta_element_set_no": 999,
        "meta_rev_at_epoch": 88975,
        "meta_bstar": 0.0015854731,
        "meta_mean_motion_dot": 9.654e-05,
        "meta_mean_motion_ddot": 0,
        "tle_line1": "1 33862U 97051AF  25357.06451956  .00009654  00000+0  15855-2 0  9991",
        "tle_line2": "2 33862  86.4076  32.9766 0052374  34.4882 354.3477 14.69631060889754"
      },
      "geometry": {
        "type": "Point",
        "coordinates": [
          -38.4834550569366,
          -86.20182893742702
        ]
      }
    },
    {
      "type": "Feature",
      "properties": {
        "norad_id": 33866,
        "name": "IRIDIUM 33 DEB",
        "group": "iridium-33-debris",
        "lat": 16.970281484786266,
        "lon": 89.49180846818842,
        "alt_km": 834.4480459151364,
        "timestamp": "2025-12-23T18:59:32.349581+00:00",
        "meta_object_name": "IRIDIUM 33 DEB",
        "meta_object_id": "1997-051AK",
        "meta_epoch": "2025-12-23T05:45:31.444128",
        "meta_mean_motion": 14.25305338,
        "meta_eccentricity": 0.01151122,
        "meta_inclination": 86.2999,
        "meta_ra_of_asc_node": 88.5936,
        "meta_arg_of_pericenter": 128.1156,
        "meta_mean_anomaly": 302.7361,
        "meta_ephemeris_type": 0,
        "meta_classification_type": "U",
        "meta_norad_cat_id": 33866,
        "meta_element_set_no": 999,
        "meta_rev_at_epoch": 86960,
        "meta_bstar": 0.00052227841,
        "meta_mean_motion_dot": 1.337e-05,
        "meta_mean_motion_ddot": 0,
        "tle_line1": "1 33866U 97051AK  25357.23994727  .00001337  00000+0  52228-3 0  9998",
        "tle_line2": "2 33866  86.2999  88.5936 0115112 128.1156 302.7361 14.25305338869600"
      },
      "geometry": {
        "type": "Point",
        "coordinates": [
          89.49180846818842,
          16.970281484786266
        ]
      }
    },
    {
      "type": "Feature",
      "properties": {
        "norad_id": 33867,
        "name": "IRIDIUM 33 DEB",
        "group": "iridium-33-debris",
        "lat": 67.03098438607596,
        "lon": 155.6205919993774,
        "alt_km": 237.7802540536968,
        "timestamp": "2025-12-23T18:59:32.349591+00:00",
        "meta_object_name": "IRIDIUM 33 DEB",
        "meta_object_id": "1997-051AL",
        "meta_epoch": "2025-12-22T23:02:25.741824",
        "meta_mean_motion": 15.97980336,
        "meta_eccentricity": 0.0012699,
        "meta_inclination": 86.3647,
        "meta_ra_of_asc_node": 344.7018,
        "meta_arg_of_pericenter": 106.1209,
        "meta_mean_anomaly": 254.1476,
        "meta_ephemeris_type": 0,
        "meta_classification_type": "U",
        "meta_norad_cat_id": 33867,
        "meta_element_set_no": 999,
        "meta_rev_at_epoch": 89672,
        "meta_bstar": 0.0099960664,
        "meta_mean_motion_dot": 0.03779635,
        "meta_mean_motion_ddot": 0.018529358,
        "tle_line1": "1 33867U 97051AL  25356.96002016  .03779635  18529-1  99961-2 0  9996",
        "tle_line2": "2 33867  86.3647 344.7018 0012699 106.1209 254.1476 15.97980336896728"
      },
      "geometry": {
        "type": "Point",
        "coordinates": [
          155.6205919993774,
          67.03098438607596
        ]
      }
    },
    {
      "type": "Feature",
      "properties": {
        "norad_id": 33870,
        "name": "IRIDIUM 33 DEB",
        "group": "iridium-33-debris",
        "lat": -35.22338554268971,
        "lon": -123.91018911857213,
        "alt_km": 740.5120479892903,
        "timestamp": "2025-12-23T18:59:32.349601+00:00",
        "meta_object_name": "IRIDIUM 33 DEB",
        "meta_object_id": "1997-051AP",
        "meta_epoch": "2025-12-23T04:59:30.895872",
        "meta_mean_motion": 14.45900909,
        "meta_eccentricity": 0.00225031,
        "meta_inclination": 86.3735,
        "meta_ra_of_asc_node": 53.7735,
        "meta_arg_of_pericenter": 144.8377,
        "meta_mean_anomaly": 275.5744,
        "meta_ephemeris_type": 0,
        "meta_classification_type": "U",
        "meta_norad_cat_id": 33870,
        "meta_element_set_no": 999,
        "meta_rev_at_epoch": 88288,
        "meta_bstar": 0.00068782741,
        "meta_mean_motion_dot": 2.471e-05,
        "meta_mean_motion_ddot": 0,
        "tle_line1": "1 33870U 97051AP  25357.20799648  .00002471  00000+0  68783-3 0  9998",
        "tle_line2": "2 33870  86.3735  53.7735 0022503 144.8377 275.5744 14.45900909882880"
      },
      "geometry": {
        "type": "Point",
        "coordinates": [
          -123.91018911857213,
          -35.22338554268971
        ]
      }
    },
    {
      "type": "Feature",
      "properties": {
        "norad_id": 33881,
        "name": "IRIDIUM 33 DEB",
        "group": "iridium-33-debris",
        "lat": 27.77540389756274,
        "lon": -79.96733083265643,
        "alt_km": 660.3617508785419,
        "timestamp": "2025-12-23T18:59:32.349610+00:00",
        "meta_object_name": "IRIDIUM 33 DEB",
        "meta_object_id": "1997-051BA",
        "meta_epoch": "2025-12-22T19:48:34.710336",
        "meta_mean_motion": 14.56741878,
        "meta_eccentricity": 0.00612167,
        "meta_inclination": 86.3868,
        "meta_ra_of_asc_node": 102.3597,
        "meta_arg_of_pericenter": 142.0862,
        "meta_mean_anomaly": 347.3767,
        "meta_ephemeris_type": 0,
        "meta_classification_type": "U",
        "meta_norad_cat_id": 33881,
        "meta_element_set_no": 999,
        "meta_rev_at_epoch": 87647,
        "meta_bstar": 0.0020565617,
        "meta_mean_motion_dot": 9.456e-05,
        "meta_mean_motion_ddot": 0,
        "tle_line1": "1 33881U 97051BA  25356.82540174  .00009456  00000+0  20566-2 0  9991",
        "tle_line2": "2 33881  86.3868 102.3597 0061216 142.0862 347.3767 14.56741878876470"
      },
      "geometry": {
        "type": "Point",
        "coordinates": [
          -79.96733083265643,
          27.77540389756274
        ]
      }
    },
    {
      "type": "Feature",
      "properties": {
        "norad_id": 33884,
        "name": "IRIDIUM 33 DEB",
        "group": "iridium-33-debris",
        "lat": -27.340749134779415,
        "lon": -173.28999576209932,
        "alt_km": 640.93570725685,
        "timestamp": "2025-12-23T18:59:32.349621+00:00",
        "meta_object_name": "IRIDIUM 33 DEB",
        "meta_object_id": "1997-051BD",
        "meta_epoch": "2025-12-21T19:42:17.168256",
        "meta_mean_motion": 14.77591703,
        "meta_eccentricity": 0.00089767,
        "meta_inclination": 86.3691,
        "meta_ra_of_asc_node": 5.7181,
        "meta_arg_of_pericenter": 287.8241,
        "meta_mean_anomaly": 245.5748,
        "meta_ephemeris_type": 0,
        "meta_classification_type": "U",
        "meta_norad_cat_id": 33884,
        "meta_element_set_no": 999,
        "meta_rev_at_epoch": 88981,
        "meta_bstar": 0.0012315655,
        "meta_mean_motion_dot": 8.831e-05,
        "meta_mean_motion_ddot": 0,
        "tle_line1": "1 33884U 97051BD  25355.82103204  .00008831  00000+0  12316-2 0  9992",
        "tle_line2": "2 33884  86.3691   5.7181 0008976 287.8241 245.5748 14.77591703889818"
      },
      "geometry": {
        "type": "Point",
        "coordinates": [
          -173.28999576209932,
          -27.340749134779415
        ]
      }
    }
  ]
}